[{"OBJECT_NAME":"ZACUBE-1 (TSHEPISOSAT)","OBJECT_ID":"2013-066B","EPOCH":"2026-03-05T03:04:31.003104","MEAN_MOTION":15.00268225,"ECCENTRICITY":0.0041858,"INCLINATION":97.8184,"RA_OF_ASC_NODE":25.9295,"ARG_OF_PERICENTER":235.3351,"MEAN_ANOMALY":124.3924,"EPHEMERIS_TYPE":0,"CLASSIFICATION_TYPE":"U","NORAD_CAT_ID":39417,"ELEMENT_SET_NO":999,"REV_AT_EPOCH":66512,"BSTAR":0.00050898604,"MEAN_MOTION_DOT":6.431e-5,"MEAN_MOTION_DDOT":0},{"OBJECT_NAME":"WNISAT-1","OBJECT_ID":"2013-066H","EPOCH":"2026-03-04T16:32:27.693024","MEAN_MOTION":14.57849387,"ECCENTRICITY":0.01632237,"INCLINATION":97.703,"RA_OF_ASC_NODE":220.3631,"ARG_OF_PERICENTER":200.6278,"MEAN_ANOMALY":158.8284,"EPHEMERIS_TYPE":0,"CLASSIFICATION_TYPE":"U","NORAD_CAT_ID":39423,"ELEMENT_SET_NO":999,"REV_AT_EPOCH":65150,"BSTAR":0.00047822205,"MEAN_MOTION_DOT":2.582e-5,"MEAN_MOTION_DDOT":0},{"OBJECT_NAME":"TRITON-1","OBJECT_ID":"2013-066M","EPOCH":"2026-03-05T06:43:14.863296","MEAN_MOTION":14.81167895,"ECCENTRICITY":0.00898245,"INCLINATION":97.8303,"RA_OF_ASC_NODE":336.4724,"ARG_OF_PERICENTER":212.2277,"MEAN_ANOMALY":147.3428,"EPHEMERIS_TYPE":0,"CLASSIFICATION_TYPE":"U","NORAD_CAT_ID":39427,"ELEMENT_SET_NO":999,"REV_AT_EPOCH":65870,"BSTAR":0.00041732039,"MEAN_MOTION_DOT":3.422e-5,"MEAN_MOTION_DDOT":0},{"OBJECT_NAME":"GOMX-1","OBJECT_ID":"2013-066Q","EPOCH":"2026-03-05T06:16:30.578592","MEAN_MOTION":14.69076378,"ECCENTRICITY":0.01305357,"INCLINATION":97.6566,"RA_OF_ASC_NODE":271.2428,"ARG_OF_PERICENTER":51.5982,"MEAN_ANOMALY":309.6863,"EPHEMERIS_TYPE":0,"CLASSIFICATION_TYPE":"U","NORAD_CAT_ID":39430,"ELEMENT_SET_NO":999,"REV_AT_EPOCH":65465,"BSTAR":0.00032539836,"MEAN_MOTION_DOT":2.126e-5,"MEAN_MOTION_DDOT":0},{"OBJECT_NAME":"CUBEBUG-2 (LO-74)","OBJECT_ID":"2013-066AA","EPOCH":"2026-03-05T06:34:41.361312","MEAN_MOTION":14.92890152,"ECCENTRICITY":0.00592337,"INCLINATION":97.8819,"RA_OF_ASC_NODE":12.9402,"ARG_OF_PERICENTER":13.7725,"MEAN_ANOMALY":346.5093,"EPHEMERIS_TYPE":0,"CLASSIFICATION_TYPE":"U","NORAD_CAT_ID":39440,"ELEMENT_SET_NO":999,"REV_AT_EPOCH":66148,"BSTAR":0.00079081334,"MEAN_MOTION_DOT":8.426e-5,"MEAN_MOTION_DDOT":0},{"OBJECT_NAME":"NEE-02 KRYSAOR","OBJECT_ID":"2013-066AB","EPOCH":"2026-03-05T06:30:12.811968","MEAN_MOTION":14.86126542,"ECCENTRICITY":0.00680672,"INCLINATION":97.8819,"RA_OF_ASC_NODE":4.3116,"ARG_OF_PERICENTER":51.2578,"MEAN_ANOMALY":309.4694,"EPHEMERIS_TYPE":0,"CLASSIFICATION_TYPE":"U","NORAD_CAT_ID":39441,"ELEMENT_SET_NO":999,"REV_AT_EPOCH":66076,"BSTAR":0.00044759385,"MEAN_MOTION_DOT":4.034e-5,"MEAN_MOTION_DDOT":0},{"OBJECT_NAME":"FUNCUBE-1 (AO-73)","OBJECT_ID":"2013-066AE","EPOCH":"2026-03-04T09:33:50.685984","MEAN_MOTION":15.07790976,"ECCENTRICITY":0.00367061,"INCLINATION":97.8175,"RA_OF_ASC_NODE":32.8468,"ARG_OF_PERICENTER":197.5791,"MEAN_ANOMALY":162.4169,"EPHEMERIS_TYPE":0,"CLASSIFICATION_TYPE":"U","NORAD_CAT_ID":39444,"ELEMENT_SET_NO":999,"REV_AT_EPOCH":66386,"BSTAR":0.00097976762,"MEAN_MOTION_DOT":0.00015175,"MEAN_MOTION_DDOT":0},{"OBJECT_NAME":"UWE-3","OBJECT_ID":"2013-066AG","EPOCH":"2026-03-04T15:31:29.717472","MEAN_MOTION":14.96109228,"ECCENTRICITY":0.00487583,"INCLINATION":97.8595,"RA_OF_ASC_NODE":19.1594,"ARG_OF_PERICENTER":309.847,"MEAN_ANOMALY":49.8465,"EPHEMERIS_TYPE":0,"CLASSIFICATION_TYPE":"U","NORAD_CAT_ID":39446,"ELEMENT_SET_NO":999,"REV_AT_EPOCH":66194,"BSTAR":0.00066020229,"MEAN_MOTION_DOT":7.547e-5,"MEAN_MOTION_DDOT":0},{"OBJECT_NAME":"BRITE-CA1 (TORONTO)","OBJECT_ID":"2014-033L","EPOCH":"2026-03-04T07:53:05.506944","MEAN_MOTION":14.72445502,"ECCENTRICITY":0.007771,"INCLINATION":97.9558,"RA_OF_ASC_NODE":194.3075,"ARG_OF_PERICENTER":252.31,"MEAN_ANOMALY":106.9613,"EPHEMERIS_TYPE":0,"CLASSIFICATION_TYPE":"U","NORAD_CAT_ID":40020,"ELEMENT_SET_NO":999,"REV_AT_EPOCH":62678,"BSTAR":0.00029920168,"MEAN_MOTION_DOT":1.935e-5,"MEAN_MOTION_DDOT":0},{"OBJECT_NAME":"DUCHIFAT-1","OBJECT_ID":"2014-033M","EPOCH":"2026-03-04T20:33:08.144064","MEAN_MOTION":15.49131837,"ECCENTRICITY":0.00065436,"INCLINATION":98.0635,"RA_OF_ASC_NODE":109.7165,"ARG_OF_PERICENTER":98.1423,"MEAN_ANOMALY":262.0569,"EPHEMERIS_TYPE":0,"CLASSIFICATION_TYPE":"U","NORAD_CAT_ID":40021,"ELEMENT_SET_NO":999,"REV_AT_EPOCH":63952,"BSTAR":0.0011792086,"MEAN_MOTION_DOT":0.00064489,"MEAN_MOTION_DDOT":0},{"OBJECT_NAME":"NANOSATC-BR1","OBJECT_ID":"2014-033Q","EPOCH":"2026-03-05T00:08:18.738816","MEAN_MOTION":15.27906917,"ECCENTRICITY":0.0004118,"INCLINATION":98.0838,"RA_OF_ASC_NODE":87.3825,"ARG_OF_PERICENTER":161.1057,"MEAN_ANOMALY":199.0333,"EPHEMERIS_TYPE":0,"CLASSIFICATION_TYPE":"U","NORAD_CAT_ID":40024,"ELEMENT_SET_NO":999,"REV_AT_EPOCH":63805,"BSTAR":0.00080895108,"MEAN_MOTION_DOT":0.00021999,"MEAN_MOTION_DDOT":0},{"OBJECT_NAME":"QB50P1","OBJECT_ID":"2014-033R","EPOCH":"2026-03-05T05:21:13.890816","MEAN_MOTION":15.16402053,"ECCENTRICITY":0.00078423,"INCLINATION":98.1001,"RA_OF_ASC_NODE":68.2039,"ARG_OF_PERICENTER":211.557,"MEAN_ANOMALY":148.5192,"EPHEMERIS_TYPE":0,"CLASSIFICATION_TYPE":"U","NORAD_CAT_ID":40025,"ELEMENT_SET_NO":999,"REV_AT_EPOCH":63726,"BSTAR":0.00068278635,"MEAN_MOTION_DOT":0.00013213,"MEAN_MOTION_DDOT":0},{"OBJECT_NAME":"QB50P2","OBJECT_ID":"2014-033Y","EPOCH":"2026-03-05T00:51:30.724128","MEAN_MOTION":15.13563218,"ECCENTRICITY":0.00081511,"INCLINATION":98.0731,"RA_OF_ASC_NODE":54.5726,"ARG_OF_PERICENTER":155.9782,"MEAN_ANOMALY":204.183,"EPHEMERIS_TYPE":0,"CLASSIFICATION_TYPE":"U","NORAD_CAT_ID":40032,"ELEMENT_SET_NO":999,"REV_AT_EPOCH":63690,"BSTAR":0.00063473486,"MEAN_MOTION_DOT":0.00011328,"MEAN_MOTION_DDOT":0},{"OBJECT_NAME":"PERSEUS-M2","OBJECT_ID":"2014-033AD","EPOCH":"2026-03-05T06:38:43.777248","MEAN_MOTION":14.95138407,"ECCENTRICITY":0.00101781,"INCLINATION":97.9872,"RA_OF_ASC_NODE":12.799,"ARG_OF_PERICENTER":288.3803,"MEAN_ANOMALY":71.6309,"EPHEMERIS_TYPE":0,"CLASSIFICATION_TYPE":"U","NORAD_CAT_ID":40037,"ELEMENT_SET_NO":999,"REV_AT_EPOCH":63525,"BSTAR":0.00038892119,"MEAN_MOTION_DOT":4.211e-5,"MEAN_MOTION_DDOT":0},{"OBJECT_NAME":"PERSEUS-M1","OBJECT_ID":"2014-033AF","EPOCH":"2026-03-05T06:10:32.600928","MEAN_MOTION":14.95227142,"ECCENTRICITY":0.00099199,"INCLINATION":97.9557,"RA_OF_ASC_NODE":6.7755,"ARG_OF_PERICENTER":285.3367,"MEAN_ANOMALY":74.6756,"EPHEMERIS_TYPE":0,"CLASSIFICATION_TYPE":"U","NORAD_CAT_ID":40039,"ELEMENT_SET_NO":999,"REV_AT_EPOCH":63510,"BSTAR":0.00036428676,"MEAN_MOTION_DOT":3.95e-5,"MEAN_MOTION_DDOT":0},{"OBJECT_NAME":"POLYITAN-1","OBJECT_ID":"2014-033AJ","EPOCH":"2026-03-05T06:58:49.088352","MEAN_MOTION":15.2932086,"ECCENTRICITY":0.00089908,"INCLINATION":98.1047,"RA_OF_ASC_NODE":80.9818,"ARG_OF_PERICENTER":140.814,"MEAN_ANOMALY":219.3751,"EPHEMERIS_TYPE":0,"CLASSIFICATION_TYPE":"U","NORAD_CAT_ID":40042,"ELEMENT_SET_NO":999,"REV_AT_EPOCH":63769,"BSTAR":0.00083407194,"MEAN_MOTION_DOT":0.00023714,"MEAN_MOTION_DDOT":0}]
